{"type": "FeatureCollection", "features": [ {"type": "Feature", "properties": {"norad_id": 66879, "name": "STARLINK-35749", "group": "last-30-days", "lat": 7.730463008681154, "lon": 9.892986352665547, "alt_km": 401.3494350992887, "timestamp": "2025-12-26T18:39:30.998379+00:00", "meta": {"OBJECT_NAME": "STARLINK-35749", "OBJECT_ID": "2025-283B", "EPOCH": "2025-12-26T14:00:04.000032", "MEAN_MOTION": 15.55985438, "ECCENTRICITY": 0.00012242, "INCLINATION": 53.1593, "RA_OF_ASC_NODE": 4.9885, "ARG_OF_PERICENTER": 76.4731, "MEAN_ANOMALY": 285.9522, "EPHEMERIS_TYPE": 0, "CLASSIFICATION_TYPE": "U", "NORAD_CAT_ID": 66879, "ELEMENT_SET_NO": 999, "REV_AT_EPOCH": 465, "BSTAR": -0.032296137, "MEAN_MOTION_DOT": -0.0204139, "MEAN_MOTION_DDOT": 0}, "tle": {"line1": "1 66879U 25283B   25360.58337963 -.02041390  00000+0 -32296-1 0  9999", "line2": "2 66879  53.1593   4.9885 0001224  76.4731 285.9522 15.55985438  4656"}}, "geometry": {"type": "Point", "coordinates": [9.892986352665547, 7.730463008681154]}}, {"type": "Feature", "properties": {"norad_id": 66880, "name": "STARLINK-35844", "group": "last-30-days", "lat": 6.204902749430337, "lon": 8.731709736867284, "alt_km": 401.732355944112, "timestamp": "2025-12-26T18:39:30.998391+00:00", "meta": {"OBJECT_NAME": "STARLINK-35844", "OBJECT_ID": "2025-283C", "EPOCH": "2025-12-26T14:00:04.000032", "MEAN_MOTION": 15.55987098, "ECCENTRICITY": 9.936e-05, "INCLINATION": 53.1594, "RA_OF_ASC_NODE": 4.9931, "ARG_OF_PERICENTER": 84.4221, "MEAN_ANOMALY": 276.0859, "EPHEMERIS_TYPE": 0, "CLASSIFICATION_TYPE": "U", "NORAD_CAT_ID": 66880, "ELEMENT_SET_NO": 999, "REV_AT_EPOCH": 465, "BSTAR": -0.032275415, "MEAN_MOTION_DOT": -0.02040192, "MEAN_MOTION_DDOT": 0}, "tle": {"line1": "1 66880U 25283C   25360.58337963 -.02040192  00000+0 -32275-1 0  9997", "line2": "2 66880  53.1594   4.9931 0000993  84.4221 276.0859 15.55987098  4654"}}, "geometry": {"type": "Point", "coordinates": [8.731709736867284, 6.204902749430337]}}, {"type": "Feature", "properties": {"norad_id": 66881, "name": "STARLINK-35860", "group": "last-30-days", "lat": 9.255277871319977, "lon": 11.064986335562855, "alt_km": 401.09785768349593, "timestamp": "2025-12-26T18:39:30.998401+00:00", "meta": {"OBJECT_NAME": "STARLINK-35860", "OBJECT_ID": "2025-283D", "EPOCH": "2025-12-26T14:00:04.000032", "MEAN_MOTION": 15.55985716, "ECCENTRICITY": 0.00010696, "INCLINATION": 53.1593, "RA_OF_ASC_NODE": 4.9843, "ARG_OF_PERICENTER": 72.4581, "MEAN_ANOMALY": 291.8812, "EPHEMERIS_TYPE": 0, "CLASSIFICATION_TYPE": "U", "NORAD_CAT_ID": 66881, "ELEMENT_SET_NO": 999, "REV_AT_EPOCH": 465, "BSTAR": -0.032229732, "MEAN_MOTION_DOT": -0.02037564, "MEAN_MOTION_DDOT": 0}, "tle": {"line1": "1 66881U 25283D   25360.58337963 -.02037564  00000+0 -32230-1 0  9998", "line2": "2 66881  53.1593   4.9843 0001069  72.4581 291.8812 15.55985716  4656"}}, "geometry": {"type": "Point", "coordinates": [11.064986335562855, 9.255277871319977]}}, {"type": "Feature", "properties": {"norad_id": 66882, "name": "STARLINK-35912", "group": "last-30-days", "lat": 10.778084594216622, "lon": 12.249752363349094, "alt_km": 400.8890050161126, "timestamp": "2025-12-26T18:39:30.998411+00:00", "meta": {"OBJECT_NAME": "STARLINK-35912", "OBJECT_ID": "2025-283E", "EPOCH": "2025-12-26T14:00:04.000032", "MEAN_MOTION": 15.5598738, "ECCENTRICITY": 0.00010342, "INCLINATION": 53.1594, "RA_OF_ASC_NODE": 4.9812, "ARG_OF_PERICENTER": 75.0737, "MEAN_ANOMALY": 291.184, "EPHEMERIS_TYPE": 0, "CLASSIFICATION_TYPE": "U", "NORAD_CAT_ID": 66882, "ELEMENT_SET_NO": 999, "REV_AT_EPOCH": 465, "BSTAR": -0.032300473, "MEAN_MOTION_DOT": -0.02041651, "MEAN_MOTION_DDOT": 0}, "tle": {"line1": "1 66882U 25283E   25360.58337963 -.02041651  00000+0 -32300-1 0  9999", "line2": "2 66882  53.1594   4.9812 0001034  75.0737 291.1840 15.55987380  4651"}}, "geometry": {"type": "Point", "coordinates": [12.249752363349094, 10.778084594216622]}}, {"type": "Feature", "properties": {"norad_id": 66883, "name": "STARLINK-35947", "group": "last-30-days", "lat": 12.293835831913526, "lon": 13.44416302658909, "alt_km": 400.7377122389362, "timestamp": "2025-12-26T18:39:30.998424+00:00", "meta": {"OBJECT_NAME": "STARLINK-35947", "OBJECT_ID": "2025-283F", "EPOCH": "2025-12-26T14:00:04.000032", "MEAN_MOTION": 15.55986123, "ECCENTRICITY": 0.00010452, "INCLINATION": 53.1593, "RA_OF_ASC_NODE": 4.9776, "ARG_OF_PERICENTER": 84.8769, "MEAN_ANOMALY": 283.2981, "EPHEMERIS_TYPE": 0, "CLASSIFICATION_TYPE": "U", "NORAD_CAT_ID": 66883, "ELEMENT_SET_NO": 999, "REV_AT_EPOCH": 470, "BSTAR": -0.032275505, "MEAN_MOTION_DOT": -0.02040162, "MEAN_MOTION_DDOT": 0}, "tle": {"line1": "1 66883U 25283F   25360.58337963 -.02040162  00000+0 -32276-1 0  9998", "line2": "2 66883  53.1593   4.9776 0001045  84.8769 283.2981 15.55986123  4703"}}, "geometry": {"type": "Point", "coordinates": [13.44416302658909, 12.293835831913526]}}, {"type": "Feature", "properties": {"norad_id": 66884, "name": "STARLINK-36057", "group": "last-30-days", "lat": 15.313223127051018, "lon": 15.878640667297361, "alt_km": 400.2853385791741, "timestamp": "2025-12-26T18:39:30.998434+00:00", "meta": {"OBJECT_NAME": "STARLINK-36057", "OBJECT_ID": "2025-283G", "EPOCH": "2025-12-26T14:00:04.000032", "MEAN_MOTION": 15.55986551, "ECCENTRICITY": 8.281e-05, "INCLINATION": 53.1592, "RA_OF_ASC_NODE": 4.9689, "ARG_OF_PERICENTER": 83.837, "MEAN_ANOMALY": 288.1723, "EPHEMERIS_TYPE": 0, "CLASSIFICATION_TYPE": "U", "NORAD_CAT_ID": 66884, "ELEMENT_SET_NO": 999, "REV_AT_EPOCH": 465, "BSTAR": -0.032266496, "MEAN_MOTION_DOT": -0.02039553, "MEAN_MOTION_DDOT": 0}, "tle": {"line1": "1 66884U 25283G   25360.58337963 -.02039553  00000+0 -32266-1 0  9990", "line2": "2 66884  53.1592   4.9689 0000828  83.8370 288.1723 15.55986551  4658"}}, "geometry": {"type": "Point", "coordinates": [15.878640667297361, 15.313223127051018]}}, {"type": "Feature", "properties": {"norad_id": 66885, "name": "STARLINK-35954", "group": "last-30-days", "lat": 13.806961099251701, "lon": 14.65345722719285, "alt_km": 400.46121055975254, "timestamp": "2025-12-26T18:39:30.998444+00:00", "meta": {"OBJECT_NAME": "STARLINK-35954", "OBJECT_ID": "2025-283H", "EPOCH": "2025-12-26T14:00:04.000032", "MEAN_MOTION": 15.55983756, "ECCENTRICITY": 9.584e-05, "INCLINATION": 53.1593, "RA_OF_ASC_NODE": 4.9729, "ARG_OF_PERICENTER": 79.9013, "MEAN_ANOMALY": 290.1925, "EPHEMERIS_TYPE": 0, "CLASSIFICATION_TYPE": "U", "NORAD_CAT_ID": 66885, "ELEMENT_SET_NO": 999, "REV_AT_EPOCH": 465, "BSTAR": -0.032210233, "MEAN_MOTION_DOT": -0.02036262, "MEAN_MOTION_DDOT": 0}, "tle": {"line1": "1 66885U 25283H   25360.58337963 -.02036262  00000+0 -32210-1 0  9994", "line2": "2 66885  53.1593   4.9729 0000958  79.9013 290.1925 15.55983756  4650"}}, "geometry": {"type": "Point", "coordinates": [14.65345722719285, 13.806961099251701]}}, {"type": "Feature", "properties": {"norad_id": 66886, "name": "STARLINK-35900", "group": "last-30-days", "lat": 16.810860577120707, "lon": 17.119846949053823, "alt_km": 399.9873951349391, "timestamp": "2025-12-26T18:39:30.998454+00:00", "meta": {"OBJECT_NAME": "STARLINK-35900", "OBJECT_ID": "2025-283J", "EPOCH": "2025-12-26T14:00:04.000032", "MEAN_MOTION": 15.55987073, "ECCENTRICITY": 9.544e-05, "INCLINATION": 53.159, "RA_OF_ASC_NODE": 4.9646, "ARG_OF_PERICENTER": 83.2092, "MEAN_ANOMALY": 290.7166, "EPHEMERIS_TYPE": 0, "CLASSIFICATION_TYPE": "U", "NORAD_CAT_ID": 66886, "ELEMENT_SET_NO": 999, "REV_AT_EPOCH": 465, "BSTAR": -0.032268645, "MEAN_MOTION_DOT": -0.02039785, "MEAN_MOTION_DDOT": 0}, "tle": {"line1": "1 66886U 25283J   25360.58337963 -.02039785  00000+0 -32269-1 0  9992", "line2": "2 66886  53.1590   4.9646 0000954  83.2092 290.7166 15.55987073  4656"}}, "geometry": {"type": "Point", "coordinates": [17.119846949053823, 16.810860577120707]}}, {"type": "Feature", "properties": {"norad_id": 66887, "name": "STARLINK-35925", "group": "last-30-days", "lat": 18.302477776268034, "lon": 18.382565883547564, "alt_km": 399.74858065535136, "timestamp": "2025-12-26T18:39:30.998463+00:00", "meta": {"OBJECT_NAME": "STARLINK-35925", "OBJECT_ID": "2025-283K", "EPOCH": "2025-12-26T14:00:04.000032", "MEAN_MOTION": 15.55986127, "ECCENTRICITY": 9.576e-05, "INCLINATION": 53.1593, "RA_OF_ASC_NODE": 4.9609, "ARG_OF_PERICENTER": 84.5962, "MEAN_ANOMALY": 291.2477, "EPHEMERIS_TYPE": 0, "CLASSIFICATION_TYPE": "U", "NORAD_CAT_ID": 66887, "ELEMENT_SET_NO": 999, "REV_AT_EPOCH": 465, "BSTAR": -0.032259267, "MEAN_MOTION_DOT": -0.02039192, "MEAN_MOTION_DDOT": 0}, "tle": {"line1": "1 66887U 25283K   25360.58337963 -.02039192  00000+0 -32259-1 0  9994", "line2": "2 66887  53.1593   4.9609 0000957  84.5962 291.2477 15.55986127  4652"}}, "geometry": {"type": "Point", "coordinates": [18.382565883547564, 18.302477776268034]}}, {"type": "Feature", "properties": {"norad_id": 66888, "name": "STARLINK-35919", "group": "last-30-days", "lat": 19.784614785807133, "lon": 19.665743997532324, "alt_km": 399.31916484614794, "timestamp": "2025-12-26T18:39:30.998473+00:00", "meta": {"OBJECT_NAME": "STARLINK-35919", "OBJECT_ID": "2025-283L", "EPOCH": "2025-12-26T14:00:04.000032", "MEAN_MOTION": 15.55982175, "ECCENTRICITY": 0.00010982, "INCLINATION": 53.1594, "RA_OF_ASC_NODE": 4.9565, "ARG_OF_PERICENTER": 71.154, "MEAN_ANOMALY": 306.608, "EPHEMERIS_TYPE": 0, "CLASSIFICATION_TYPE": "U", "NORAD_CAT_ID": 66888, "ELEMENT_SET_NO": 999, "REV_AT_EPOCH": 465, "BSTAR": -0.032207566, "MEAN_MOTION_DOT": -0.02036088, "MEAN_MOTION_DDOT": 0}, "tle": {"line1": "1 66888U 25283L   25360.58337963 -.02036088  00000+0 -32208-1 0  9990", "line2": "2 66888  53.1594   4.9565 0001098  71.1540 306.6080 15.55982175  4656"}}, "geometry": {"type": "Point", "coordinates": [19.665743997532324, 19.784614785807133]}}]}